STARLINK-32884          
1 62953U 25029F   26176.04711398  .00037895  00000+0  11260-2 0  9991
2 62953  53.1586  90.3100 0001248  68.7350 291.3786 15.34429062 77817
STARLINK-32874          
1 62954U 25029G   26176.03869375  .00039157  00000+0  11629-2 0  9992
2 62954  53.1591  90.2559 0001490 147.3689 212.7406 15.34429119 77818
STARLINK-32880          
1 62955U 25029H   26176.04100373  .00036462  00000+0  11795-2 0  9990
2 62955  53.1589  93.1063 0001135  74.4651 285.6476 15.31739754 77770
STARLINK-32815          
1 62956U 25029J   26176.00091330  .00024791  00000+0  74214-3 0  9997
2 62956  53.1593  90.7336 0001538  92.5745 267.5434 15.34412315 77805
STARLINK-32879          
1 62957U 25029K   26176.07367374  .00023363  00000+0  76162-3 0  9997
2 62957  53.1564  93.3126 0001234  98.7815 261.3327 15.31726644 77767
STARLINK-32885          
1 62958U 25029L   26176.05342517  .00038508  00000+0  11439-2 0  9990
2 62958  53.1575  90.3460 0001026  79.1531 280.9587 15.34429051 77800
STARLINK-32896          
1 62959U 25029M   26176.07245941  .00025999  00000+0  88618-3 0  9990
2 62959  53.1575  94.0094 0001107 103.9221 256.1903 15.30224316 77751
STARLINK-32877          
1 62960U 25029N   26176.00081359  .00037882  00000+0  12838-2 0  9990
2 62960  53.1573  94.2732 0001191 107.6014 252.5117 15.30221552 77729
STARLINK-32889          
1 62961U 25029P   26176.06929546  .00028418  00000+0  96743-3 0  9999
2 62961  53.1581  93.9921 0001419 107.0866 253.0291 15.30217147 77754
STARLINK-32858          
1 62962U 25029Q   26176.01020172  .00024308  00000+0  82990-3 0  9995
2 62962  53.1582  93.6249 0001493  89.8919 270.2253 15.30209317 77731
STARLINK-32882          
1 62963U 25029R   26176.04080182  .00034543  00000+0  10280-2 0  9990
2 62963  53.1591  90.2687 0001164  71.4105 288.7024 15.34423975 77800
STARLINK-32887          
1 62964U 25029S   26176.07867154  .00039330  00000+0  11681-2 0  9991
2 62964  53.1594  90.5039 0001248 102.9268 257.1874 15.34426778 77808
STARLINK-32836          
1 62965U 25029T   26176.02826547  .00035220  00000+0  10481-2 0  9999
2 62965  53.1596  90.8991 0001281 103.3980 256.7166 15.34415819 77795
STARLINK-32888          
1 62966U 25029U   26175.99765339  .00025119  00000+0  85694-3 0  9991
2 62966  53.1572  94.2651 0002037  99.1527 260.9704 15.30215059 77740
STARLINK-32897          
1 62967U 25029V   26176.02875132  .00018069  00000+0  54436-3 0  9996
2 62967  53.1597  92.3166 0001736  99.9078 260.2121 15.34414983 77772
STARLINK-32863          
1 62968U 25029W   26175.99442171  .00037530  00000+0  12140-2 0  9994
2 62968  53.1571  93.5243 0001147  94.5415 265.5717 15.31727008 76899
STARLINK-32894          
1 62969U 25029X   26176.02391451  .00030163  00000+0  10251-2 0  9990
2 62969  53.1593  93.7033 0001139 118.1661 241.9455 15.30239014 77757
STARLINK-32826          
1 62970U 25029Y   26176.08289677  .00040291  00000+0  13653-2 0  9996
2 62970  53.1578  93.3604 0000822  94.3267 265.7828 15.30196157 77766
STARLINK-11543 [DTC]    
1 62981U 25031A   26174.98422195  .00204048  00000+0  15530-2 0  9990
2 62981  43.0006  80.4064 0002150 269.7912  90.2709 15.70869476 79463
STARLINK-11458 [DTC]    
1 62982U 25031B   26175.19089772  .00164130  00000+0  12495-2 0  9999
2 62982  42.9994  79.3848 0002507 231.4493 128.6150 15.70990053 79496
STARLINK-11417 [DTC]    
1 62983U 25031C   26175.92747766  .00165485  00000+0  12685-2 0  9990
2 62983  43.0009  75.4701 0002872 291.8115  68.2447 15.70821475 79609
STARLINK-11544 [DTC]    
1 62984U 25031D   26174.74050551  .00129863  00000+0  99714-3 0  9998
2 62984  43.0006  82.0254 0003218 281.9813  78.0694 15.70899928 79391
STARLINK-11582 [DTC]    
1 62985U 25031E   26175.01077389  .00145707  00000+0  11170-2 0  9992
2 62985  43.0016  80.6193 0002670 276.7033  83.3530 15.70886301 79463
STARLINK-11571 [DTC]    
1 62986U 25031F   26174.97891180  .00214967  00000+0  16346-2 0  9995
2 62986  43.0008  80.3616 0002039 284.8029  75.2613 15.70857321 79468
STARLINK-11539 [DTC]    
1 62987U 25031G   26174.75112478  .00179093  00000+0  13633-2 0  9994
2 62987  42.9997  82.1087 0001520 247.7068 112.3639 15.70944924 79424
STARLINK-11542 [DTC]    
1 62988U 25031H   26175.94327788  .00226634  00000+0  17154-2 0  9995
2 62988  43.0010  74.6973 0001864 252.0709 107.9955 15.70931775 79583
STARLINK-11573 [DTC]    
1 62989U 25031J   26175.02138617  .00184945  00000+0  14080-2 0  9999
2 62989  43.0008  80.7025 0001916 252.3503 107.7156 15.70924145 79438
STARLINK-11572 [DTC]    
1 62990U 25031K   26176.16667823  .00049250  00000+0  38575-3 0  9998
2 62990  43.0009  73.4398 0001685 264.0089 245.7264 15.70796031  5977
STARLINK-11583 [DTC]    
1 62991U 25031L   26174.96311410  .00192731  00000+0  14698-2 0  9995
2 62991  43.0006  81.1282 0002400 287.2116  72.8489 15.70857245 79465
STARLINK-11570 [DTC]    
1 62992U 25031M   26174.45976527  .00150139  00000+0  11511-2 0  9993
2 62992  42.9982  84.2383 0000435 359.5663   0.5204 15.70870539 79362
