OBJECT_NAME,OBJECT_ID,EPOCH,MEAN_MOTION,ECCENTRICITY,INCLINATION,RA_OF_ASC_NODE,ARG_OF_PERICENTER,MEAN_ANOMALY,EPHEMERIS_TYPE,CLASSIFICATION_TYPE,NORAD_CAT_ID,ELEMENT_SET_NO,REV_AT_EPOCH,BSTAR,MEAN_MOTION_DOT,MEAN_MOTION_DDOT
STARLINK-32884,2025-029F,2026-06-25T01:07:50.647872,15.34429062,.0001248,53.1586,90.3100,68.7350,291.3786,0,U,62953,999,7781,.1126E-2,.37895E-3,0
STARLINK-32874,2025-029G,2026-06-25T00:55:43.140000,15.34429119,.000149,53.1591,90.2559,147.3689,212.7406,0,U,62954,999,7781,.11629E-2,.39157E-3,0
STARLINK-32880,2025-029H,2026-06-25T00:59:02.722272,15.31739754,.0001135,53.1589,93.1063,74.4651,285.6476,0,U,62955,999,7777,.11795E-2,.36462E-3,0
STARLINK-32815,2025-029J,2026-06-25T00:01:18.909120,15.34412315,.0001538,53.1593,90.7336,92.5745,267.5434,0,U,62956,999,7780,.74214E-3,.24791E-3,0
STARLINK-32879,2025-029K,2026-06-25T01:46:05.411136,15.31726644,.0001234,53.1564,93.3126,98.7815,261.3327,0,U,62957,999,7776,.76162E-3,.23363E-3,0
STARLINK-32885,2025-029L,2026-06-25T01:16:55.934688,15.34429051,.0001026,53.1575,90.3460,79.1531,280.9587,0,U,62958,999,7780,.11439E-2,.38508E-3,0
STARLINK-32896,2025-029M,2026-06-25T01:44:20.493024,15.30224316,.0001107,53.1575,94.0094,103.9221,256.1903,0,U,62959,999,7775,.88618E-3,.25999E-3,0
STARLINK-32877,2025-029N,2026-06-25T00:01:10.294176,15.30221552,.0001191,53.1573,94.2732,107.6014,252.5117,0,U,62960,999,7772,.12838E-2,.37882E-3,0
STARLINK-32889,2025-029P,2026-06-25T01:39:47.127744,15.30217147,.0001419,53.1581,93.9921,107.0866,253.0291,0,U,62961,999,7775,.96743E-3,.28418E-3,0
STARLINK-32858,2025-029Q,2026-06-25T00:14:41.428608,15.30209317,.0001493,53.1582,93.6249,89.8919,270.2253,0,U,62962,999,7773,.8299E-3,.24308E-3,0
STARLINK-32882,2025-029R,2026-06-25T00:58:45.277248,15.34423975,.0001164,53.1591,90.2687,71.4105,288.7024,0,U,62963,999,7780,.1028E-2,.34543E-3,0
STARLINK-32887,2025-029S,2026-06-25T01:53:17.221056,15.34426778,.0001248,53.1594,90.5039,102.9268,257.1874,0,U,62964,999,7780,.11681E-2,.3933E-3,0
STARLINK-32836,2025-029T,2026-06-25T00:40:42.136608,15.34415819,.0001281,53.1596,90.8991,103.3980,256.7166,0,U,62965,999,7779,.10481E-2,.3522E-3,0
STARLINK-32888,2025-029U,2026-06-24T23:56:37.252896,15.30215059,.0002037,53.1572,94.2651,99.1527,260.9704,0,U,62966,999,7774,.85694E-3,.25119E-3,0
STARLINK-32897,2025-029V,2026-06-25T00:41:24.114048,15.34414983,.0001736,53.1597,92.3166,99.9078,260.2121,0,U,62967,999,7777,.54436E-3,.18069E-3,0
STARLINK-32863,2025-029W,2026-06-24T23:51:58.035744,15.31727008,.0001147,53.1571,93.5243,94.5415,265.5717,0,U,62968,999,7689,.1214E-2,.3753E-3,0
STARLINK-32894,2025-029X,2026-06-25T00:34:26.213664,15.30239014,.0001139,53.1593,93.7033,118.1661,241.9455,0,U,62969,999,7775,.10251E-2,.30163E-3,0
STARLINK-32826,2025-029Y,2026-06-25T01:59:22.280928,15.30196157,.0000822,53.1578,93.3604,94.3267,265.7828,0,U,62970,999,7776,.13653E-2,.40291E-3,0
STARLINK-11543 [DTC],2025-031A,2026-06-23T23:37:16.776480,15.70869476,.00021506,43.0006,80.4064,269.7912,90.2709,0,U,62981,999,7946,.15530043E-2,.204048E-2,0
STARLINK-11458 [DTC],2025-031B,2026-06-24T04:34:53.563008,15.70990053,.00025078,42.9994,79.3848,231.4493,128.6150,0,U,62982,999,7949,.12495342E-2,.16413E-2,0
STARLINK-11417 [DTC],2025-031C,2026-06-24T22:15:34.069824,15.70821475,.0002872,43.0009,75.4701,291.8115,68.2447,0,U,62983,999,7960,.12685E-2,.165485E-2,0
STARLINK-11544 [DTC],2025-031D,2026-06-23T17:46:19.676064,15.70899928,.00032187,43.0006,82.0254,281.9813,78.0694,0,U,62984,999,7939,.99714328E-3,.129863E-2,0
STARLINK-11582 [DTC],2025-031E,2026-06-24T00:15:30.864096,15.70886301,.00026702,43.0016,80.6193,276.7033,83.3530,0,U,62985,999,7946,.11169683E-2,.145707E-2,0
STARLINK-11571 [DTC],2025-031F,2026-06-23T23:29:37.979520,15.70857321,.0002039,43.0008,80.3616,284.8029,75.2613,0,U,62986,999,7946,.16346063E-2,.214967E-2,0
STARLINK-11539 [DTC],2025-031G,2026-06-23T18:01:37.180992,15.70944924,.000152,42.9997,82.1087,247.7068,112.3639,0,U,62987,999,7942,.13633257E-2,.179093E-2,0
STARLINK-11542 [DTC],2025-031H,2026-06-24T22:38:19.208832,15.70931775,.0001864,43.0010,74.6973,252.0709,107.9955,0,U,62988,999,7958,.17154E-2,.226634E-2,0
STARLINK-11573 [DTC],2025-031J,2026-06-24T00:30:47.765088,15.70924145,.00019162,43.0008,80.7025,252.3503,107.7156,0,U,62989,999,7943,.14079763E-2,.184945E-2,0
STARLINK-11572 [DTC],2025-031K,2026-06-25T04:00:00.999072,15.70796031,.0001685,43.0009,73.4398,264.0089,245.7264,0,U,62990,999,597,.38575E-3,.4925E-3,0
STARLINK-11583 [DTC],2025-031L,2026-06-23T23:06:53.058240,15.70857245,.00024008,43.0006,81.1282,287.2116,72.8489,0,U,62991,999,7946,.14698007E-2,.192731E-2,0
STARLINK-11570 [DTC],2025-031M,2026-06-23T11:02:03.719328,15.70870539,.00004357,42.9982,84.2383,359.5663,0.5204,0,U,62992,999,7936,.11510709E-2,.150139E-2,0
